[{"OBJECT_NAME":"ONEWEB-0220","OBJECT_ID":"2021-031Y","EPOCH":"2025-09-27T13:35:27.843072","MEAN_MOTION":13.14502539,"ECCENTRICITY":0.00020596,"INCLINATION":87.9075,"RA_OF_ASC_NODE":341.9849,"ARG_OF_PERICENTER":99.508,"MEAN_ANOMALY":260.6283,"EPHEMERIS_TYPE":0,"CLASSIFICATION_TYPE":"U","NORAD_CAT_ID":48232,"ELEMENT_SET_NO":999,"REV_AT_EPOCH":21390,"BSTAR":0.00035560764,"MEAN_MOTION_DOT":1.45e-6,"MEAN_MOTION_DDOT":0},{"OBJECT_NAME":"ONEWEB-0165","OBJECT_ID":"2021-031Z","EPOCH":"2025-09-27T05:08:29.973984","MEAN_MOTION":13.14503701,"ECCENTRICITY":0.00020744,"INCLINATION":87.906,"RA_OF_ASC_NODE":342.0928,"ARG_OF_PERICENTER":105.0588,"MEAN_ANOMALY":255.0771,"EPHEMERIS_TYPE":0,"CLASSIFICATION_TYPE":"U","NORAD_CAT_ID":48233,"ELEMENT_SET_NO":999,"REV_AT_EPOCH":21381,"BSTAR":2.901995e-5,"MEAN_MOTION_DOT":2.4e-7,"MEAN_MOTION_DDOT":0},{"OBJECT_NAME":"ONEWEB-0199","OBJECT_ID":"2021-031AA","EPOCH":"2025-09-27T06:35:16.595232","MEAN_MOTION":13.14502015,"ECCENTRICITY":0.00016787,"INCLINATION":87.9067,"RA_OF_ASC_NODE":342.0483,"ARG_OF_PERICENTER":97.8672,"MEAN_ANOMALY":262.2648,"EPHEMERIS_TYPE":0,"CLASSIFICATION_TYPE":"U","NORAD_CAT_ID":48234,"ELEMENT_SET_NO":999,"REV_AT_EPOCH":21372,"BSTAR":0.00061750259,"MEAN_MOTION_DOT":2.42e-6,"MEAN_MOTION_DDOT":0},{"OBJECT_NAME":"ONEWEB-0203","OBJECT_ID":"2021-031AB","EPOCH":"2025-09-27T04:31:57.935136","MEAN_MOTION":13.14503292,"ECCENTRICITY":0.00016265,"INCLINATION":87.9069,"RA_OF_ASC_NODE":342.067,"ARG_OF_PERICENTER":105.9904,"MEAN_ANOMALY":254.1405,"EPHEMERIS_TYPE":0,"CLASSIFICATION_TYPE":"U","NORAD_CAT_ID":48235,"ELEMENT_SET_NO":999,"REV_AT_EPOCH":21372,"BSTAR":0.00068936402,"MEAN_MOTION_DOT":2.68e-6,"MEAN_MOTION_DDOT":0},{"OBJECT_NAME":"ONEWEB-0197","OBJECT_ID":"2021-031AC","EPOCH":"2025-09-27T05:44:51.360576","MEAN_MOTION":13.1450441,"ECCENTRICITY":0.00020316,"INCLINATION":87.9067,"RA_OF_ASC_NODE":342.055,"ARG_OF_PERICENTER":92.7061,"MEAN_ANOMALY":267.4301,"EPHEMERIS_TYPE":0,"CLASSIFICATION_TYPE":"U","NORAD_CAT_ID":48236,"ELEMENT_SET_NO":999,"REV_AT_EPOCH":21364,"BSTAR":-0.0003690859,"MEAN_MOTION_DOT":-1.24e-6,"MEAN_MOTION_DDOT":0},{"OBJECT_NAME":"ONEWEB-0194","OBJECT_ID":"2021-031AD","EPOCH":"2025-09-27T05:15:20.766240","MEAN_MOTION":13.14501542,"ECCENTRICITY":0.00015561,"INCLINATION":87.9074,"RA_OF_ASC_NODE":342.0739,"ARG_OF_PERICENTER":98.2845,"MEAN_ANOMALY":261.8461,"EPHEMERIS_TYPE":0,"CLASSIFICATION_TYPE":"U","NORAD_CAT_ID":48237,"ELEMENT_SET_NO":999,"REV_AT_EPOCH":21381,"BSTAR":-0.00049771375,"MEAN_MOTION_DOT":-1.72e-6,"MEAN_MOTION_DDOT":0},{"OBJECT_NAME":"ONEWEB-0193","OBJECT_ID":"2021-031AE","EPOCH":"2025-09-27T05:38:11.049504","MEAN_MOTION":13.14505373,"ECCENTRICITY":0.00014084,"INCLINATION":87.9059,"RA_OF_ASC_NODE":342.0707,"ARG_OF_PERICENTER":95.6427,"MEAN_ANOMALY":264.4863,"EPHEMERIS_TYPE":0,"CLASSIFICATION_TYPE":"U","NORAD_CAT_ID":48238,"ELEMENT_SET_NO":999,"REV_AT_EPOCH":21376,"BSTAR":-0.00042405508,"MEAN_MOTION_DOT":-1.44e-6,"MEAN_MOTION_DDOT":0},{"OBJECT_NAME":"ONEWEB-0191","OBJECT_ID":"2021-031AF","EPOCH":"2025-09-27T05:54:10.416096","MEAN_MOTION":13.14502535,"ECCENTRICITY":0.00018081,"INCLINATION":87.9081,"RA_OF_ASC_NODE":342.0486,"ARG_OF_PERICENTER":98.5552,"MEAN_ANOMALY":261.5783,"EPHEMERIS_TYPE":0,"CLASSIFICATION_TYPE":"U","NORAD_CAT_ID":48239,"ELEMENT_SET_NO":999,"REV_AT_EPOCH":21362,"BSTAR":-0.0001360851,"MEAN_MOTION_DOT":-3.8e-7,"MEAN_MOTION_DDOT":0},{"OBJECT_NAME":"ONEWEB-0195","OBJECT_ID":"2021-031AG","EPOCH":"2025-09-27T05:21:04.155264","MEAN_MOTION":13.14502059,"ECCENTRICITY":0.00020536,"INCLINATION":87.9077,"RA_OF_ASC_NODE":342.0496,"ARG_OF_PERICENTER":109.777,"MEAN_ANOMALY":250.3581,"EPHEMERIS_TYPE":0,"CLASSIFICATION_TYPE":"U","NORAD_CAT_ID":48240,"ELEMENT_SET_NO":999,"REV_AT_EPOCH":21360,"BSTAR":-0.00037986259,"MEAN_MOTION_DOT":-1.28e-6,"MEAN_MOTION_DDOT":0},{"OBJECT_NAME":"ONEWEB-0201","OBJECT_ID":"2021-031AH","EPOCH":"2025-09-27T05:04:07.792320","MEAN_MOTION":13.14501421,"ECCENTRICITY":0.00021533,"INCLINATION":87.9075,"RA_OF_ASC_NODE":342.1011,"ARG_OF_PERICENTER":98.5296,"MEAN_ANOMALY":261.6078,"EPHEMERIS_TYPE":0,"CLASSIFICATION_TYPE":"U","NORAD_CAT_ID":48241,"ELEMENT_SET_NO":999,"REV_AT_EPOCH":21383,"BSTAR":0.00032080195,"MEAN_MOTION_DOT":1.32e-6,"MEAN_MOTION_DDOT":0},{"OBJECT_NAME":"ONEWEB-0207","OBJECT_ID":"2021-031AJ","EPOCH":"2025-09-27T06:24:59.715648","MEAN_MOTION":13.14504208,"ECCENTRICITY":0.00019881,"INCLINATION":87.9069,"RA_OF_ASC_NODE":342.047,"ARG_OF_PERICENTER":96.1902,"MEAN_ANOMALY":263.9455,"EPHEMERIS_TYPE":0,"CLASSIFICATION_TYPE":"U","NORAD_CAT_ID":48242,"ELEMENT_SET_NO":999,"REV_AT_EPOCH":21375,"BSTAR":0.00053096792,"MEAN_MOTION_DOT":2.1e-6,"MEAN_MOTION_DDOT":0},{"OBJECT_NAME":"ONEWEB-0208","OBJECT_ID":"2021-031AK","EPOCH":"2025-09-27T05:58:44.692896","MEAN_MOTION":13.14501654,"ECCENTRICITY":0.00019029,"INCLINATION":87.9072,"RA_OF_ASC_NODE":342.0658,"ARG_OF_PERICENTER":104.0415,"MEAN_ANOMALY":256.0926,"EPHEMERIS_TYPE":0,"CLASSIFICATION_TYPE":"U","NORAD_CAT_ID":48243,"ELEMENT_SET_NO":999,"REV_AT_EPOCH":21376,"BSTAR":0.00015331606,"MEAN_MOTION_DOT":7.0e-7,"MEAN_MOTION_DDOT":0},{"OBJECT_NAME":"ONEWEB-0200","OBJECT_ID":"2021-031AL","EPOCH":"2025-09-27T14:14:15.395136","MEAN_MOTION":13.14504942,"ECCENTRICITY":0.00018804,"INCLINATION":87.907,"RA_OF_ASC_NODE":341.9876,"ARG_OF_PERICENTER":102.4067,"MEAN_ANOMALY":257.7273,"EPHEMERIS_TYPE":0,"CLASSIFICATION_TYPE":"U","NORAD_CAT_ID":48244,"ELEMENT_SET_NO":999,"REV_AT_EPOCH":21373,"BSTAR":0.0001186966,"MEAN_MOTION_DOT":5.7e-7,"MEAN_MOTION_DDOT":0},{"OBJECT_NAME":"ONEWEB-0217","OBJECT_ID":"2021-031AM","EPOCH":"2025-09-27T05:29:02.691168","MEAN_MOTION":13.14502241,"ECCENTRICITY":0.00019573,"INCLINATION":87.9077,"RA_OF_ASC_NODE":342.0478,"ARG_OF_PERICENTER":109.1741,"MEAN_ANOMALY":250.9601,"EPHEMERIS_TYPE":0,"CLASSIFICATION_TYPE":"U","NORAD_CAT_ID":48245,"ELEMENT_SET_NO":999,"REV_AT_EPOCH":21363,"BSTAR":-0.00080736617,"MEAN_MOTION_DOT":-2.87e-6,"MEAN_MOTION_DDOT":0},{"OBJECT_NAME":"ONEWEB-0211","OBJECT_ID":"2021-045A","EPOCH":"2025-09-27T12:48:10.762560","MEAN_MOTION":13.16085378,"ECCENTRICITY":0.00016348,"INCLINATION":87.9011,"RA_OF_ASC_NODE":311.5447,"ARG_OF_PERICENTER":103.8568,"MEAN_ANOMALY":256.2745,"EPHEMERIS_TYPE":0,"CLASSIFICATION_TYPE":"U","NORAD_CAT_ID":48767,"ELEMENT_SET_NO":999,"REV_AT_EPOCH":20989,"BSTAR":-0.00023580264,"MEAN_MOTION_DOT":-7.7e-7,"MEAN_MOTION_DDOT":0},{"OBJECT_NAME":"ONEWEB-0223","OBJECT_ID":"2021-045B","EPOCH":"2025-09-27T13:36:55.958112","MEAN_MOTION":13.1554768,"ECCENTRICITY":0.00014732,"INCLINATION":87.9002,"RA_OF_ASC_NODE":311.593,"ARG_OF_PERICENTER":107.5287,"MEAN_ANOMALY":252.6004,"EPHEMERIS_TYPE":0,"CLASSIFICATION_TYPE":"U","NORAD_CAT_ID":48768,"ELEMENT_SET_NO":999,"REV_AT_EPOCH":20987,"BSTAR":0.00041105569,"MEAN_MOTION_DOT":1.68e-6,"MEAN_MOTION_DDOT":0}]
