ONEWEB-0220             
1 48232U 21031Y   25270.56629448  .00000145  00000+0  35561-3 0  9998
2 48232  87.9075 341.9849 0002059  99.5080 260.6283 13.14502539213907
ONEWEB-0165             
1 48233U 21031Z   25270.21423581  .00000024  00000+0  29020-4 0  9991
2 48233  87.9060 342.0928 0002074 105.0588 255.0771 13.14503701213817
ONEWEB-0199             
1 48234U 21031AA  25270.27449763  .00000242  00000+0  61750-3 0  9995
2 48234  87.9067 342.0483 0001678  97.8672 262.2648 13.14502015213722
ONEWEB-0203             
1 48235U 21031AB  25270.18886499  .00000268  00000+0  68936-3 0  9998
2 48235  87.9069 342.0670 0001626 105.9904 254.1405 13.14503292213724
ONEWEB-0197             
1 48236U 21031AC  25270.23948334 -.00000124  00000+0 -36909-3 0  9990
2 48236  87.9067 342.0550 0002031  92.7061 267.4301 13.14504410213644
ONEWEB-0194             
1 48237U 21031AD  25270.21899035 -.00000172  00000+0 -49771-3 0  9996
2 48237  87.9074 342.0739 0001556  98.2845 261.8461 13.14501542213811
ONEWEB-0193             
1 48238U 21031AE  25270.23485011 -.00000144  00000+0 -42406-3 0  9991
2 48238  87.9059 342.0707 0001408  95.6427 264.4863 13.14505373213768
ONEWEB-0191             
1 48239U 21031AF  25270.24595389 -.00000038  00000+0 -13609-3 0  9998
2 48239  87.9081 342.0486 0001808  98.5552 261.5783 13.14502535213624
ONEWEB-0195             
1 48240U 21031AG  25270.22296476 -.00000128  00000+0 -37986-3 0  9997
2 48240  87.9077 342.0496 0002053 109.7770 250.3581 13.14502059213603
ONEWEB-0201             
1 48241U 21031AH  25270.21120130  .00000132  00000+0  32080-3 0  9993
2 48241  87.9075 342.1011 0002153  98.5296 261.6078 13.14501421213838
ONEWEB-0207             
1 48242U 21031AJ  25270.26735782  .00000210  00000+0  53097-3 0  9992
2 48242  87.9069 342.0470 0001988  96.1902 263.9455 13.14504208213754
ONEWEB-0208             
1 48243U 21031AK  25270.24912839  .00000070  00000+0  15332-3 0  9995
2 48243  87.9072 342.0658 0001902 104.0415 256.0926 13.14501654213760
ONEWEB-0200             
1 48244U 21031AL  25270.59323374  .00000057  00000+0  11870-3 0  9992
2 48244  87.9070 341.9876 0001880 102.4067 257.7273 13.14504942213732
ONEWEB-0217             
1 48245U 21031AM  25270.22850337 -.00000287  00000+0 -80737-3 0  9992
2 48245  87.9077 342.0478 0001957 109.1741 250.9601 13.14502241213637
ONEWEB-0211             
1 48767U 21045A   25270.53345790 -.00000077  00000+0 -23580-3 0  9992
2 48767  87.9011 311.5447 0001634 103.8568 256.2745 13.16085378209891
ONEWEB-0223             
1 48768U 21045B   25270.56731433  .00000168  00000+0  41106-3 0  9992
2 48768  87.9002 311.5930 0001473 107.5287 252.6004 13.15547680209873
